NORAD_CAT_ID,OBJECT_NAME,OBJECT_TYPE,EPOCH,MEAN_MOTION,ECCENTRICITY,INCLINATION,RA_OF_ASC_NODE,ARG_OF_PERICENTER,MEAN_ANOMALY,BSTAR,MEAN_MOTION_DOT,MEAN_MOTION_DDOT,TLE_LINE0,TLE_LINE1,TLE_LINE2,SEMIMAJOR_AXIS,PERIOD,APOGEE,PERIGEE,DECAYED
52842.0,STARLINK-4046,PAYLOAD,2022-12-16 21:00:47,15.08838081,0.0002884,53.2171,286.0382,22.3243,337.7875,6.4375e-05,7.36e-06,0.0,0 STARLINK-4046,1 52842U 22062N   22350.87554462  .00000736  00000-0  64375-4 0  9991,2 52842  53.2171 286.0382 0002884  22.3243 337.7875 15.08838081 27820,6917.886,95.438,541.746,537.756,0.0
52842.0,STARLINK-4046,PAYLOAD,2022-12-17 12:54:39,15.08824514,0.0003108,53.2178,283.0653,27.2955,332.82,4.325e-05,3.99e-06,0.0,0 STARLINK-4046,1 52842U 22062N   22351.53795839  .00000399  00000-0  43250-4 0  9994,2 52842  53.2178 283.0653 0003108  27.2955 332.8200 15.08824514 27924,6917.928000000001,95.439,541.943,537.643,0.0
52842.0,STARLINK-4046,PAYLOAD,2022-12-18 03:13:07,15.08828205,0.0003628999999999,53.2178,280.3903,10.9597,349.1474,0.00030234,4.525e-05,0.0,0 STARLINK-4046,1 52842U 22062N   22352.13411119  .00004525  00000-0  30234-3 0  9999,2 52842  53.2178 280.3903 0003629  10.9597 349.1474 15.08828205 28501,6917.916,95.438,542.2919999999998,537.271,0.0
52842.0,STARLINK-4046,PAYLOAD,2022-12-18 23:53:07,15.0885126,0.0003247,53.218,276.5245,27.6484,332.468,4.9544e-05,5e-06,0.0,0 STARLINK-4046,1 52842U 22062N   22352.99522301  .00000500  00000-0  49544-4 0  9993,2 52842  53.2180 276.5245 0003247  27.6484 332.4680 15.08851260 28631,6917.846,95.437,541.957,537.465,0.0
52842.0,STARLINK-4046,PAYLOAD,2022-12-20 01:19:17,15.08847766,0.0003075,53.2179,271.7659,24.1768,335.9368,0.00011447,1.534e-05,0.0,0 STARLINK-4046,1 52842U 22062N   22354.05505925  .00001534  00000-0  11447-3 0  9993,2 52842  53.2179 271.7659 0003075  24.1768 335.9368 15.08847766 28795,6917.857,95.437,541.849,537.594,0.0
52842.0,STARLINK-4046,PAYLOAD,2022-12-20 04:30:02,15.08856322,0.000312,53.2171,271.1701,24.3089,335.805,0.00012123,1.642e-05,0.0,0 STARLINK-4046,1 52842U 22062N   22354.18753448  .00001642  00000-0  12123-3 0  9994,2 52842  53.2171 271.1701 0003120  24.3089 335.8050 15.08856322 28816,6917.83,95.437,541.854,537.5369999999998,0.0
52842.0,STARLINK-4046,PAYLOAD,2022-12-21 04:20:51,15.08832401,0.0003072,53.2171,266.7106,23.5144,336.5988,-0.00014539,-2.602e-05,0.0,0 STARLINK-4046,1 52842U 22062N   22355.18114852 -.00002602  00000-0 -14539-3 0  9997,2 52842  53.2171 266.7106 0003072  23.5144 336.5988 15.08832401 28960,6917.904,95.438,541.894,537.643,0.0
52842.0,STARLINK-4046,PAYLOAD,2022-12-22 10:33:11,15.08832566,0.000312,53.2172,261.0611,23.355,336.7583,-0.00010314,-1.93e-05,0.0,0 STARLINK-4046,1 52842U 22062N   22356.43971664 -.00001930  00000-0 -10314-3 0  9998,2 52842  53.2172 261.0611 0003120  23.3550 336.7583 15.08832566 29150,6917.903,95.438,541.9259999999998,537.61,0.0
52842.0,STARLINK-4046,PAYLOAD,2022-12-22 18:30:07,15.08790437,0.0003233,53.2174,259.5738,24.9141,335.2006,0.00053497,8.225e-05,0.0,0 STARLINK-4046,1 52842U 22062N   22356.77091662  .00008225  00000-0  53497-3 0  9997,2 52842  53.2174 259.5738 0003233  24.9141 335.2006 15.08790437 28717,6918.031999999997,95.441,542.133,537.66,0.0
52842.0,STARLINK-4046,PAYLOAD,2022-12-22 23:16:16,15.08833358,0.00031,53.2172,258.682,23.2819,336.8313,0.00012629,1.722e-05,0.0,0 STARLINK-4046,1 52842U 22062N   22356.96963177  .00001722  00000-0  12629-3 0  9994,2 52842  53.2172 258.6820 0003100  23.2819 336.8313 15.08833358 29230,6917.901,95.438,541.91,537.621,0.0
52842.0,STARLINK-4046,PAYLOAD,2022-12-23 10:23:58,15.08829901,0.0003128,53.2171,256.6006,24.4986,335.6154,8.182899999999999e-05,1.014e-05,0.0,0 STARLINK-4046,1 52842U 22062N   22357.43331870  .00001014  00000-0  81829-4 0  9999,2 52842  53.2171 256.6006 0003128  24.4986 335.6154 15.08829901 28813,6917.911,95.438,541.94,537.612,0.0
52842.0,STARLINK-4046,PAYLOAD,2022-12-23 18:20:54,15.08829606,0.0003122,53.2166,255.113,23.0652,337.048,0.00020319,2.946e-05,0.0,0 STARLINK-4046,1 52842U 22062N   22357.76451811  .00002946  00000-0  20319-3 0  9994,2 52842  53.2166 255.1130 0003122  23.0652 337.0480 15.08829606 28863,6917.9119999999975,95.438,541.937,537.617,0.0
52842.0,STARLINK-4046,PAYLOAD,2022-12-24 02:17:49,15.08843191,0.0003231,53.2171,253.6264,25.4182,334.6969,0.00023745,3.493e-05,0.0,0 STARLINK-4046,1 52842U 22062N   22358.09571053  .00003493  00000-0  23745-3 0  9996,2 52842  53.2171 253.6264 0003231  25.4182 334.6969 15.08843191 29406,6917.871,95.437,541.971,537.5,0.0
52842.0,STARLINK-4046,PAYLOAD,2022-12-24 10:14:45,15.08841132,0.0003282,53.2172,252.1396,25.7807,334.3348,0.00019809,2.866e-05,0.0,0 STARLINK-4046,1 52842U 22062N   22358.42691315  .00002866  00000-0  19809-3 0  9996,2 52842  53.2172 252.1396 0003282  25.7807 334.3348 15.08841132 28961,6917.877,95.437,542.012,537.471,0.0
52842.0,STARLINK-4046,PAYLOAD,2022-12-24 18:11:41,15.08842233,0.0003273,53.2178,250.6523,30.4792,329.639,7.0542e-05,8.34e-06,0.0,0 STARLINK-4046,1 52842U 22062N   22358.75811643  .00000834  00000-0  70542-4 0  9995,2 52842  53.2178 250.6523 0003273  30.4792 329.6390 15.08842233 29012,6917.874,95.437,542.003,537.474,0.0
52842.0,STARLINK-4046,PAYLOAD,2022-12-24 21:22:27,15.08838621,0.0003294,53.2171,250.0573,29.9589,330.1591,3.668800000000001e-05,2.95e-06,0.0,0 STARLINK-4046,1 52842U 22062N   22358.89059982  .00000295  00000-0  36688-4 0  9994,2 52842  53.2171 250.0573 0003294  29.9589 330.1591 15.08838621 29526,6917.885,95.438,542.028,537.471,0.0
52842.0,STARLINK-4046,PAYLOAD,2022-12-25 10:05:32,15.08839843,0.0003283,53.2172,247.6788,27.1611,332.9552,4.8783e-05,4.88e-06,0.0,0 STARLINK-4046,1 52842U 22062N   22359.42051677  .00000488  00000-0  48783-4 0  9990,2 52842  53.2172 247.6788 0003283  27.1611 332.9552 15.08839843 29110,6917.880999999999,95.438,542.0169999999998,537.475,0.0
52842.0,STARLINK-4046,PAYLOAD,2022-12-25 19:37:51,15.08837663,0.0003266,53.2169,245.8947,27.6449,332.4716,-3.4363e-05,-8.36e-06,0.0,0 STARLINK-4046,1 52842U 22062N   22359.81796020 -.00000836  00000-0 -34363-4 0  9999,2 52842  53.2169 245.8947 0003266  27.6449 332.4716 15.08837663 29179,6917.888000000001,95.438,542.012,537.493,0.0
52842.0,STARLINK-4046,PAYLOAD,2022-12-26 01:59:24,15.08842427,0.0003233,53.2165,244.7047,27.9573,332.1592,-5.5069e-05,-1.165e-05,0.0,0 STARLINK-4046,1 52842U 22062N   22360.08291751 -.00001165  00000-0 -55069-4 0  9993,2 52842  53.2165 244.7047 0003233  27.9573 332.1592 15.08842427 29701,6917.873000000001,95.437,541.975,537.501,0.0
52842.0,STARLINK-4046,PAYLOAD,2022-12-26 09:56:19,15.08849932,0.0003228,53.2168,243.2183,28.2825,331.8342,-2.499e-05,-6.87e-06,0.0,0 STARLINK-4046,1 52842U 22062N   22360.41411091 -.00000687  00000-0 -24990-4 0  9998,2 52842  53.2168 243.2183 0003228  28.2825 331.8342 15.08849932 29265,6917.85,95.437,541.948,537.482,0.0
52842.0,STARLINK-4046,PAYLOAD,2022-12-26 19:28:38,15.08841298,0.0003327,53.2168,241.4347,31.0277,329.0911,-1.9099e-05,-5.93e-06,0.0,0 STARLINK-4046,1 52842U 22062N   22360.81155604 -.00000593  00000-0 -19099-4 0  9997,2 52842  53.2168 241.4347 0003327  31.0277 329.0911 15.08841298 29325,6917.876,95.437,542.043,537.44,0.0
52842.0,STARLINK-4046,PAYLOAD,2022-12-27 01:50:10,15.08838396,0.0003361,53.217,240.2454,28.3563,331.7611,4.832e-05,4.8e-06,0.0,0 STARLINK-4046,1 52842U 22062N   22361.07651577  .00000480  00000-0  48320-4 0  9998,2 52842  53.2170 240.2454 0003361  28.3563 331.7611 15.08838396 29859,6917.885,95.438,542.075,537.425,0.0
52842.0,STARLINK-4046,PAYLOAD,2022-12-27 09:47:06,15.08846629,0.0003327,53.217,238.759,29.3472,330.7706,7.3576e-05,8.83e-06,0.0,0 STARLINK-4046,1 52842U 22062N   22361.40770910  .00000883  00000-0  73576-4 0  9996,2 52842  53.2170 238.7590 0003327  29.3472 330.7706 15.08846629 29902,6917.86,95.437,542.0269999999998,537.424,0.0
52842.0,STARLINK-4046,PAYLOAD,2022-12-28 01:40:56,15.08853618,0.0003123,53.2176,235.7845,25.8105,334.3043,0.00014472,2.016e-05,0.0,0 STARLINK-4046,1 52842U 22062N   22362.07009801  .00002016  00000-0  14472-3 0  9993,2 52842  53.2176 235.7845 0003123  25.8105 334.3043 15.08853618 30009,6917.839,95.437,541.864,537.543,0.0
52842.0,STARLINK-4046,PAYLOAD,2022-12-28 19:10:10,15.08847039,0.0003335,53.216,232.5137,27.4089,332.7079,0.00011749,1.582e-05,0.0,0 STARLINK-4046,1 52842U 22062N   22362.79873775  .00001582  00000-0  11749-3 0  9992,2 52842  53.2160 232.5137 0003335  27.4089 332.7079 15.08847039 30118,6917.859,95.437,542.031,537.4169999999998,0.0
52842.0,STARLINK-4046,PAYLOAD,2022-12-29 01:31:45,15.0882823,0.0003128,53.2161,231.3236,26.6505,333.4647,-9.1095e-05,-1.738e-05,0.0,0 STARLINK-4046,1 52842U 22062N   22363.06372257 -.00001738  00000-0 -91095-4 0  9990,2 52842  53.2161 231.3236 0003128  26.6505 333.4647 15.08828230 30155,6917.916,95.438,541.945,537.617,0.0
52842.0,STARLINK-4046,PAYLOAD,2022-12-29 07:53:18,15.0883218,0.0002973999999999,53.216,230.1345,26.9883,333.1263,-7.1122e-05,-1.42e-05,0.0,0 STARLINK-4046,1 52842U 22062N   22363.32868091 -.00001420  00000-0 -71122-4 0  9992,2 52842  53.2160 230.1345 0002974  26.9883 333.1263 15.08832180 29701,6917.904,95.438,541.827,537.712,0.0
52842.0,STARLINK-4046,PAYLOAD,2022-12-30 07:44:06,15.08825143,0.0003258,53.2161,225.675,29.2264,330.891,-8.2966e-05,-1.609e-05,0.0,0 STARLINK-4046,1 52842U 22062N   22364.32229518 -.00001609  00000-0 -82966-4 0  9995,2 52842  53.2161 225.6750 0003258  29.2264 330.8910 15.08825143 30342,6917.926,95.438,542.045,537.5369999999998,0.0
52842.0,STARLINK-4046,PAYLOAD,2022-12-31 01:13:19,15.0884372,0.0003231,53.2161,222.4036,28.8338,331.2833,0.00026169,3.879e-05,0.0,0 STARLINK-4046,1 52842U 22062N   22365.05091890  .00003879  00000-0  26169-3 0  9997,2 52842  53.2161 222.4036 0003231  28.8338 331.2833 15.08843720 30454,6917.869000000002,95.437,541.969,537.499,0.0
